NORAD_CAT_ID,OBJECT_NAME,OBJECT_TYPE,EPOCH,MEAN_MOTION,ECCENTRICITY,INCLINATION,RA_OF_ASC_NODE,ARG_OF_PERICENTER,MEAN_ANOMALY,BSTAR,MEAN_MOTION_DOT,MEAN_MOTION_DDOT,TLE_LINE0,TLE_LINE1,TLE_LINE2,SEMIMAJOR_AXIS,PERIOD,APOGEE,PERIGEE,DECAYED
53285.0,STARLINK-4173,PAYLOAD,2023-06-11 13:54:05,15.08835285,0.0001128,53.2168,2.7687,91.1418,268.9703,6.7201e-05,7.82e-06,0.0,0 STARLINK-4173,1 53285U 22086AV  23162.57922679  .00000782  00000-0  67201-4 0  9999,2 53285  53.2168   2.7687 0001128  91.1418 268.9703 15.08835285 49908,6917.895,95.438,540.54,538.979,0.0
53285.0,STARLINK-4173,PAYLOAD,2023-06-11 21:51:00,15.08841834,0.000113,53.2177,1.2811,89.4418,270.6703,6.1625e-05,6.93e-06,0.0,0 STARLINK-4173,1 53285U 22086AV  23162.91042228  .00000693  00000-0  61625-4 0  9995,2 53285  53.2177   1.2811 0001130  89.4418 270.6703 15.08841834 49956,6917.875,95.437,540.522,538.958,0.0
53285.0,STARLINK-4173,PAYLOAD,2023-06-12 05:47:56,15.08839164,9.82e-05,53.2167,359.7947,87.6533,272.4571,6.1879e-05,6.97e-06,0.0,0 STARLINK-4173,1 53285U 22086AV  23163.24162418  .00000697  00000-0  61879-4 0  9991,2 53285  53.2167 359.7947 0000982  87.6533 272.4571 15.08839164 50002,6917.883,95.438,540.427,539.069,0.0
53285.0,STARLINK-4173,PAYLOAD,2023-06-12 20:06:24,15.08837065,0.0001016,53.2169,357.1185,86.0221,274.0888,3.8248e-05,3.21e-06,0.0,0 STARLINK-4173,1 53285U 22086AV  23163.83778779  .00000321  00000-0  38248-4 0  9997,2 53285  53.2169 357.1185 0001016  86.0221 274.0888 15.08837065 49933,6917.889,95.438,540.457,539.052,0.0
53285.0,STARLINK-4173,PAYLOAD,2023-06-12 21:41:47,15.08839445,0.0001055,53.2171,356.8211,82.7917,277.3195,6.9021e-05,8.11e-06,0.0,0 STARLINK-4173,1 53285U 22086AV  23163.90402574  .00000811  00000-0  69021-4 0  9999,2 53285  53.2171 356.8211 0001055  82.7917 277.3195 15.08839445 50102,6917.882,95.438,540.477,539.017,0.0
53285.0,STARLINK-4173,PAYLOAD,2023-06-13 21:32:34,15.08843989,0.0001028,53.2177,352.3604,85.9901,274.1209,4.2687e-05,3.92e-06,0.0,0 STARLINK-4173,1 53285U 22086AV  23164.89762465  .00000392  00000-0  42687-4 0  9999,2 53285  53.2177 352.3604 0001028  85.9901 274.1209 15.08843989 50258,6917.868,95.437,540.444,539.022,0.0
53285.0,STARLINK-4173,PAYLOAD,2023-06-14 11:51:03,15.08836367,0.0001108,53.2175,349.6843,93.5091,266.6028,7.7952e-05,9.53e-06,0.0,0 STARLINK-4173,1 53285U 22086AV  23165.49378952  .00000953  00000-0  77952-4 0  9996,2 53285  53.2175 349.6843 0001108  93.5091 266.6028 15.08836367 50183,6917.891,95.438,540.523,538.99,0.0
53285.0,STARLINK-4173,PAYLOAD,2023-06-14 13:26:26,15.08841861,0.0001315,53.2176,349.3869,89.4156,270.6987,-2.7459e-05,-7.25e-06,0.0,0 STARLINK-4173,1 53285U 22086AV  23165.56002936 -.00000725  00000-0 -27459-4 0  9996,2 53285  53.2176 349.3869 0001315  89.4156 270.6987 15.08841861 50358,6917.875,95.437,540.649,538.83,0.0
53285.0,STARLINK-4173,PAYLOAD,2023-06-15 11:41:50,15.08838954,0.0001167,53.2172,345.2231,97.4804,262.6321,7.2582e-05,8.67e-06,0.0,0 STARLINK-4173,1 53285U 22086AV  23166.48738889  .00000867  00000-0  72582-4 0  9993,2 53285  53.2172 345.2231 0001167  97.4804 262.6321 15.08838954 50493,6917.884,95.438,540.556,538.941,0.0
53285.0,STARLINK-4173,PAYLOAD,2023-06-15 18:03:22,15.08842376,0.0001158,53.2178,344.0338,89.964,270.1485,5.5134e-05,5.9e-06,0.0,0 STARLINK-4173,1 53285U 22086AV  23166.75234757  .00000590  00000-0  55134-4 0  9995,2 53285  53.2178 344.0338 0001158  89.9640 270.1485 15.08842376 50373,6917.873,95.437,540.539,538.937,0.0
53285.0,STARLINK-4173,PAYLOAD,2023-06-16 11:32:37,15.08845082,0.0001255,53.2185,340.7638,87.9977,272.1159,0.00010349,1.36e-05,0.0,0 STARLINK-4173,1 53285U 22086AV  23167.48098387  .00001360  00000-0  10349-3 0  9997,2 53285  53.2185 340.7638 0001255  87.9977 272.1159 15.08845082 50643,6917.865,95.437,540.598,538.862,0.0
53285.0,STARLINK-4173,PAYLOAD,2023-06-16 19:29:31,15.08856834,0.0001091,53.2183,339.2771,95.6577,264.4539,0.0002051,2.979e-05,0.0,0 STARLINK-4173,1 53285U 22086AV  23167.81217081  .00002979  00000-0  20510-3 0  9996,2 53285  53.2183 339.2771 0001091  95.6577 264.4539 15.08856834 50690,6917.829,95.436,540.449,538.939,0.0
53285.0,STARLINK-4173,PAYLOAD,2023-06-17 11:23:25,15.08830051,0.0001282,53.2184,336.3047,83.8769,276.237,-2.0517e-05,-6.14e-06,0.0,0 STARLINK-4173,1 53285U 22086AV  23168.47459697 -.00000614  00000-0 -20517-4 0  9994,2 53285  53.2184 336.3047 0001282  83.8769 276.2370 15.08830051 50797,6917.911,95.438,540.663,538.889,0.0
53285.0,STARLINK-4173,PAYLOAD,2023-06-17 17:44:58,15.08825263,0.0001305,53.2186,335.1153,76.8858,283.2279,-6.0546e-05,-1.251e-05,0.0,0 STARLINK-4173,1 53285U 22086AV  23168.73956313 -.00001251  00000-0 -60546-4 0  9994,2 53285  53.2186 335.1153 0001305  76.8858 283.2279 15.08825263 50673,6917.925,95.438,540.693,538.888,0.0
53285.0,STARLINK-4173,PAYLOAD,2023-06-17 19:20:21,15.08826153,0.0001067,53.2184,334.8163,84.7449,275.3665,-7.5918e-05,-1.495e-05,0.0,0 STARLINK-4173,1 53285U 22086AV  23168.80580302 -.00001495  00000-0 -75918-4 0  9992,2 53285  53.2184 334.8163 0001067  84.7449 275.3665 15.08826153 50846,6917.923,95.438,540.526,539.05,0.0
53285.0,STARLINK-4173,PAYLOAD,2023-06-18 17:35:44,15.08840204,9.43e-05,53.2191,330.6539,71.3978,288.7116,8.8741e-05,1.125e-05,0.0,0 STARLINK-4173,1 53285U 22086AV  23169.73315321  .00001125  00000-0  88741-4 0  9998,2 53285  53.2191 330.6539 0000943  71.3978 288.7116 15.08840204 50826,6917.88,95.438,540.397,539.092,0.0
53285.0,STARLINK-4173,PAYLOAD,2023-06-19 11:04:59,15.08834926,0.0001106,53.2183,327.3828,65.4269,294.6839,0.00024995,3.692e-05,0.0,0 STARLINK-4173,1 53285U 22086AV  23170.46179529  .00003692  00000-0  24995-3 0  9999,2 53285  53.2183 327.3828 0001106  65.4269 294.6839 15.08834926 51092,6917.896,95.438,540.526,538.996,0.0
53285.0,STARLINK-4173,PAYLOAD,2023-06-19 19:01:54,15.08850423,0.0001137,53.2172,325.8962,64.1965,295.9145,0.00040289,6.132e-05,0.0,0 STARLINK-4173,1 53285U 22086AV  23170.79299136  .00006132  00000-0  40289-3 0  9998,2 53285  53.2172 325.8962 0001137  64.1965 295.9145 15.08850423 51145,6917.849,95.437,540.5,538.927,0.0
53285.0,STARLINK-4173,PAYLOAD,2023-06-20 02:58:50,15.08841102,0.0001333,53.2172,324.4092,70.8487,289.2649,0.00014859,2.078e-05,0.0,0 STARLINK-4173,1 53285U 22086AV  23171.12419620  .00002078  00000-0  14859-3 0  9997,2 53285  53.2172 324.4092 0001333  70.8487 289.2649 15.08841102 51032,6917.877,95.437,540.664,538.82,0.0
53285.0,STARLINK-4173,PAYLOAD,2023-06-20 18:52:41,15.08845903,9.54e-05,53.2175,321.4358,73.0449,287.0648,1.5835e-05,-3.6e-07,0.0,0 STARLINK-4173,1 53285U 22086AV  23171.78659038 -.00000036  00000-0  15835-4 0  9997,2 53285  53.2175 321.4358 0000954  73.0449 287.0648 15.08845903 51294,6917.862,95.437,540.387,539.067,0.0
53285.0,STARLINK-4173,PAYLOAD,2023-06-21 09:11:09,15.08840315,0.0001274,53.2173,318.7588,75.6892,284.4242,-8.446e-05,-1.632e-05,0.0,0 STARLINK-4173,1 53285U 22086AV  23172.38275386 -.00001632  00000-0 -84460-4 0  9998,2 53285  53.2173 318.7588 0001274  75.6892 284.4242 15.08840315 51228,6917.879,95.438,540.626,538.863,0.0
53285.0,STARLINK-4173,PAYLOAD,2023-06-21 18:43:28,15.0884743,9.57e-05,53.217,316.9743,98.4033,261.7068,5.676e-05,6.16e-06,0.0,0 STARLINK-4173,1 53285U 22086AV  23172.78018866  .00000616  00000-0  56760-4 0  9991,2 53285  53.2170 316.9743 0000957  98.4033 261.7068 15.08847430 51280,6917.858,95.437,540.385,539.061,0.0
53285.0,STARLINK-4173,PAYLOAD,2023-06-22 09:01:57,15.08833599,0.0001178,53.2177,314.2978,81.1867,278.9259,2.9585e-05,1.83e-06,0.0,0 STARLINK-4173,1 53285U 22086AV  23173.37635912  .00000183  00000-0  29585-4 0  9998,2 53285  53.2177 314.2978 0001178  81.1867 278.9259 15.08833599 51371,6917.9,95.438,540.58,538.95,0.0
53285.0,STARLINK-4173,PAYLOAD,2023-06-23 08:52:44,15.08843452,0.0001097,53.2171,309.8398,84.46,275.6517,0.00019962,2.891e-05,0.0,0 STARLINK-4173,1 53285U 22086AV  23174.36995632  .00002891  00000-0  19962-3 0  9991,2 53285  53.2171 309.8398 0001097  84.4600 275.6517 15.08843452 51529,6917.87,95.437,540.494,538.976,0.0
53285.0,STARLINK-4173,PAYLOAD,2023-06-24 15:05:03,15.08845651,0.0001256,53.217,304.1896,91.5151,268.5985,0.00016768,2.382e-05,0.0,0 STARLINK-4173,1 53285U 22086AV  23175.62851539  .00002382  00000-0  16768-3 0  9994,2 53285  53.2170 304.1896 0001256  91.5151 268.5985 15.08845651 51710,6917.863,95.437,540.597,538.859,0.0
53285.0,STARLINK-4173,PAYLOAD,2023-06-25 08:34:18,15.08841982,0.0001328,53.2168,300.9194,91.4685,268.646,0.00014336,1.995e-05,0.0,0 STARLINK-4173,1 53285U 22086AV  23176.35715713  .00001995  00000-0  14336-3 0  9996,2 53285  53.2168 300.9194 0001328  91.4685 268.6460 15.08841982 51827,6917.874,95.437,540.658,538.821,0.0
53285.0,STARLINK-4173,PAYLOAD,2023-06-26 08:25:05,15.08835187,0.0001333,53.2174,296.4583,97.9539,262.1605,8.4256e-05,1.053e-05,0.0,0 STARLINK-4173,1 53285U 22086AV  23177.35076148  .00001053  00000-0  84256-4 0  9993,2 53285  53.2174 296.4583 0001333  97.9539 262.1605 15.08835187 51976,6917.895,95.438,540.682,538.838,0.0
53285.0,STARLINK-4173,PAYLOAD,2023-06-27 11:26:39,15.08843142,0.00011,53.2168,291.4029,80.6817,279.4299,0.00015259,2.142e-05,0.0,0 STARLINK-4173,1 53285U 22086AV  23178.47684131  .00002142  00000-0  15259-3 0  9990,2 53285  53.2168 291.4029 0001100  80.6817 279.4299 15.08843142 52149,6917.871,95.437,540.497,538.975,0.0
53285.0,STARLINK-4173,PAYLOAD,2023-06-28 00:09:44,15.08836801,0.0001045,53.2167,289.0249,92.127,267.9842,7.3353e-05,8.8e-06,0.0,0 STARLINK-4173,1 53285U 22086AV  23179.00676389  .00000880  00000-0  73353-4 0  9993,2 53285  53.2167 289.0249 0001045  92.1270 267.9842 15.08836801 52223,6917.89,95.438,540.478,539.032,0.0
53285.0,STARLINK-4173,PAYLOAD,2023-06-28 06:31:17,15.08827777,0.0001574,53.2172,287.8351,85.1859,274.9313,-1.3442e-05,-5.02e-06,0.0,0 STARLINK-4173,1 53285U 22086AV  23179.27173251 -.00000502  00000-0 -13442-4 0  9998,2 53285  53.2172 287.8351 0001574  85.1859 274.9313 15.08827777 52268,6917.918,95.438,540.872,538.694,0.0
